{"type": "FeatureCollection", "features": [ {"type": "Feature", "properties": {"norad_id": 66363, "name": "STARLINK-35806", "group": "last-30-days", "lat": -50.631299906947866, "lon": -102.21492872354986, "alt_km": 376.69037137892883, "timestamp": "2025-12-02T21:34:00.041014+00:00", "meta": {"OBJECT_NAME": "STARLINK-35806", "OBJECT_ID": "2025-254R", "EPOCH": "2025-12-02T12:00:05.998752", "MEAN_MOTION": 15.6744961, "ECCENTRICITY": 0.0001341, "INCLINATION": 53.1587, "RA_OF_ASC_NODE": 325.7763, "ARG_OF_PERICENTER": 86.9352, "MEAN_ANOMALY": 109.0738, "EPHEMERIS_TYPE": 0, "CLASSIFICATION_TYPE": "U", "NORAD_CAT_ID": 66363, "ELEMENT_SET_NO": 999, "REV_AT_EPOCH": 524, "BSTAR": -0.020201, "MEAN_MOTION_DOT": -0.01969132, "MEAN_MOTION_DDOT": 0}, "tle": {"line1": "1 66363U 25254R   25336.50006943 -.01969132  00000+0 -20201-1 0  9996", "line2": "2 66363  53.1587 325.7763 0001341  86.9352 109.0738 15.67449610  5242"}}, "geometry": {"type": "Point", "coordinates": [-102.21492872354986, -50.631299906947866]}}, {"type": "Feature", "properties": {"norad_id": 66364, "name": "STARLINK-35797", "group": "last-30-days", "lat": -49.251870686726654, "lon": -96.66870676527925, "alt_km": 376.53649920596035, "timestamp": "2025-12-02T21:34:00.041025+00:00", "meta": {"OBJECT_NAME": "STARLINK-35797", "OBJECT_ID": "2025-254S", "EPOCH": "2025-12-02T12:00:05.998752", "MEAN_MOTION": 15.67462619, "ECCENTRICITY": 0.000116, "INCLINATION": 53.159, "RA_OF_ASC_NODE": 325.7683, "ARG_OF_PERICENTER": 87.3365, "MEAN_ANOMALY": 112.5068, "EPHEMERIS_TYPE": 0, "CLASSIFICATION_TYPE": "U", "NORAD_CAT_ID": 66364, "ELEMENT_SET_NO": 999, "REV_AT_EPOCH": 527, "BSTAR": -0.020447, "MEAN_MOTION_DOT": -0.01991032, "MEAN_MOTION_DDOT": 0}, "tle": {"line1": "1 66364U 25254S   25336.50006943 -.01991032  00000+0 -20447-1 0  9993", "line2": "2 66364  53.1590 325.7683 0001160  87.3365 112.5068 15.67462619  5278"}}, "geometry": {"type": "Point", "coordinates": [-96.66870676527925, -49.251870686726654]}}, {"type": "Feature", "properties": {"norad_id": 66365, "name": "STARLINK-35827", "group": "last-30-days", "lat": -47.623995875536025, "lon": -91.45816584122254, "alt_km": 376.4987779986259, "timestamp": "2025-12-02T21:34:00.041034+00:00", "meta": {"OBJECT_NAME": "STARLINK-35827", "OBJECT_ID": "2025-254T", "EPOCH": "2025-12-02T12:00:05.998752", "MEAN_MOTION": 15.67453271, "ECCENTRICITY": 0.0001207, "INCLINATION": 53.159, "RA_OF_ASC_NODE": 325.7611, "ARG_OF_PERICENTER": 91.0408, "MEAN_ANOMALY": 112.6368, "EPHEMERIS_TYPE": 0, "CLASSIFICATION_TYPE": "U", "NORAD_CAT_ID": 66365, "ELEMENT_SET_NO": 999, "REV_AT_EPOCH": 524, "BSTAR": -0.020281, "MEAN_MOTION_DOT": -0.01976221, "MEAN_MOTION_DDOT": 0}, "tle": {"line1": "1 66365U 25254T   25336.50006943 -.01976221  00000+0 -20281-1 0  9993", "line2": "2 66365  53.1590 325.7611 0001207  91.0408 112.6368 15.67453271  5247"}}, "geometry": {"type": "Point", "coordinates": [-91.45816584122254, -47.623995875536025]}}, {"type": "Feature", "properties": {"norad_id": 66366, "name": "STARLINK-35845", "group": "last-30-days", "lat": -48.46866978327486, "lon": -94.0266876352964, "alt_km": 376.66059769827734, "timestamp": "2025-12-02T21:34:00.041044+00:00", "meta": {"OBJECT_NAME": "STARLINK-35845", "OBJECT_ID": "2025-254U", "EPOCH": "2025-12-02T12:00:05.998752", "MEAN_MOTION": 15.67453333, "ECCENTRICITY": 0.0001406, "INCLINATION": 53.1588, "RA_OF_ASC_NODE": 325.7643, "ARG_OF_PERICENTER": 90.7287, "MEAN_ANOMALY": 111.0292, "EPHEMERIS_TYPE": 0, "CLASSIFICATION_TYPE": "U", "NORAD_CAT_ID": 66366, "ELEMENT_SET_NO": 999, "REV_AT_EPOCH": 527, "BSTAR": -0.020262, "MEAN_MOTION_DOT": -0.01974755, "MEAN_MOTION_DDOT": 0}, "tle": {"line1": "1 66366U 25254U   25336.50006943 -.01974755  00000+0 -20262-1 0  9993", "line2": "2 66366  53.1588 325.7643 0001406  90.7287 111.0292 15.67453333  5273"}}, "geometry": {"type": "Point", "coordinates": [-94.0266876352964, -48.46866978327486]}}, {"type": "Feature", "properties": {"norad_id": 66367, "name": "STARLINK-35846", "group": "last-30-days", "lat": -46.725872770339635, "lon": -88.98233154831061, "alt_km": 376.55644910793126, "timestamp": "2025-12-02T21:34:00.041055+00:00", "meta": {"OBJECT_NAME": "STARLINK-35846", "OBJECT_ID": "2025-254V", "EPOCH": "2025-12-02T12:00:05.998752", "MEAN_MOTION": 15.67456356, "ECCENTRICITY": 0.0001406, "INCLINATION": 53.159, "RA_OF_ASC_NODE": 325.7559, "ARG_OF_PERICENTER": 85.6664, "MEAN_ANOMALY": 119.926, "EPHEMERIS_TYPE": 0, "CLASSIFICATION_TYPE": "U", "NORAD_CAT_ID": 66367, "ELEMENT_SET_NO": 999, "REV_AT_EPOCH": 522, "BSTAR": -0.020325, "MEAN_MOTION_DOT": -0.01980328, "MEAN_MOTION_DDOT": 0}, "tle": {"line1": "1 66367U 25254V   25336.50006943 -.01980328  00000+0 -20325-1 0  9997", "line2": "2 66367  53.1590 325.7559 0001406  85.6664 119.9260 15.67456356  5220"}}, "geometry": {"type": "Point", "coordinates": [-88.98233154831061, -46.725872770339635]}}, {"type": "Feature", "properties": {"norad_id": 66368, "name": "STARLINK-34861", "group": "last-30-days", "lat": -24.803764315700185, "lon": -56.54691255190169, "alt_km": 350.7210445816927, "timestamp": "2025-12-02T21:34:00.041065+00:00", "meta": {"OBJECT_NAME": "STARLINK-34861", "OBJECT_ID": "2025-254W", "EPOCH": "2025-12-02T11:02:08.077344", "MEAN_MOTION": 15.7425231, "ECCENTRICITY": 0.0001543, "INCLINATION": 53.1569, "RA_OF_ASC_NODE": 325.9067, "ARG_OF_PERICENTER": 119.9542, "MEAN_ANOMALY": 240.1631, "EPHEMERIS_TYPE": 0, "CLASSIFICATION_TYPE": "U", "NORAD_CAT_ID": 66368, "ELEMENT_SET_NO": 999, "REV_AT_EPOCH": 406, "BSTAR": 0.0011794, "MEAN_MOTION_DOT": 0.00176236, "MEAN_MOTION_DDOT": 0}, "tle": {"line1": "1 66368U 25254W   25336.45981571  .00176236  00000+0  11794-2 0  9994", "line2": "2 66368  53.1569 325.9067 0001543 119.9542 240.1631 15.74252310  4063"}}, "geometry": {"type": "Point", "coordinates": [-56.54691255190169, -24.803764315700185]}}, {"type": "Feature", "properties": {"norad_id": 66369, "name": "STARLINK-35795", "group": "last-30-days", "lat": -26.281647374829674, "lon": -58.000806967522394, "alt_km": 350.78296663034234, "timestamp": "2025-12-02T21:34:00.041076+00:00", "meta": {"OBJECT_NAME": "STARLINK-35795", "OBJECT_ID": "2025-254X", "EPOCH": "2025-12-02T11:02:37.266720", "MEAN_MOTION": 15.74234838, "ECCENTRICITY": 0.00012, "INCLINATION": 53.1571, "RA_OF_ASC_NODE": 325.9091, "ARG_OF_PERICENTER": 115.0326, "MEAN_ANOMALY": 245.0818, "EPHEMERIS_TYPE": 0, "CLASSIFICATION_TYPE": "U", "NORAD_CAT_ID": 66369, "ELEMENT_SET_NO": 999, "REV_AT_EPOCH": 406, "BSTAR": 0.00083807, "MEAN_MOTION_DOT": 0.00124177, "MEAN_MOTION_DDOT": 0}, "tle": {"line1": "1 66369U 25254X   25336.46015355  .00124177  00000+0  83807-3 0  9996", "line2": "2 66369  53.1571 325.9091 0001200 115.0326 245.0818 15.74234838  4067"}}, "geometry": {"type": "Point", "coordinates": [-58.000806967522394, -26.281647374829674]}}, {"type": "Feature", "properties": {"norad_id": 66370, "name": "STARLINK-35824", "group": "last-30-days", "lat": -23.367945167170653, "lon": -55.179037035268216, "alt_km": 350.48124569389074, "timestamp": "2025-12-02T21:34:00.041086+00:00", "meta": {"OBJECT_NAME": "STARLINK-35824", "OBJECT_ID": "2025-254Y", "EPOCH": "2025-12-02T11:01:38.991648", "MEAN_MOTION": 15.74251859, "ECCENTRICITY": 0.0001645, "INCLINATION": 53.1569, "RA_OF_ASC_NODE": 325.905, "ARG_OF_PERICENTER": 104.7981, "MEAN_ANOMALY": 255.3221, "EPHEMERIS_TYPE": 0, "CLASSIFICATION_TYPE": "U", "NORAD_CAT_ID": 66370, "ELEMENT_SET_NO": 999, "REV_AT_EPOCH": 406, "BSTAR": 0.0011821, "MEAN_MOTION_DOT": 0.00176643, "MEAN_MOTION_DDOT": 0}, "tle": {"line1": "1 66370U 25254Y   25336.45947907  .00176643  00000+0  11821-2 0  9995", "line2": "2 66370  53.1569 325.9050 0001645 104.7981 255.3221 15.74251859  4060"}}, "geometry": {"type": "Point", "coordinates": [-55.179037035268216, -23.367945167170653]}}, {"type": "Feature", "properties": {"norad_id": 66371, "name": "STARLINK-35804", "group": "last-30-days", "lat": -20.489586666047973, "lon": -52.55524923860015, "alt_km": 349.8104998017661, "timestamp": "2025-12-02T21:34:00.041096+00:00", "meta": {"OBJECT_NAME": "STARLINK-35804", "OBJECT_ID": "2025-254Z", "EPOCH": "2025-12-02T12:32:05.989056", "MEAN_MOTION": 15.74245989, "ECCENTRICITY": 0.0001241, "INCLINATION": 53.1569, "RA_OF_ASC_NODE": 325.5848, "ARG_OF_PERICENTER": 84.3497, "MEAN_ANOMALY": 275.7664, "EPHEMERIS_TYPE": 0, "CLASSIFICATION_TYPE": "U", "NORAD_CAT_ID": 66371, "ELEMENT_SET_NO": 999, "REV_AT_EPOCH": 407, "BSTAR": 0.0012598, "MEAN_MOTION_DOT": 0.00188518, "MEAN_MOTION_DDOT": 0}, "tle": {"line1": "1 66371U 25254Z   25336.52229154  .00188518  00000+0  12598-2 0  9997", "line2": "2 66371  53.1569 325.5848 0001241  84.3497 275.7664 15.74245989  4074"}}, "geometry": {"type": "Point", "coordinates": [-52.55524923860015, -20.489586666047973]}}, {"type": "Feature", "properties": {"norad_id": 66372, "name": "STARLINK-35821", "group": "last-30-days", "lat": -21.89576275195373, "lon": -53.81802681318513, "alt_km": 350.23500008859264, "timestamp": "2025-12-02T21:34:00.041108+00:00", "meta": {"OBJECT_NAME": "STARLINK-35821", "OBJECT_ID": "2025-254AA", "EPOCH": "2025-12-02T11:01:09.721056", "MEAN_MOTION": 15.74257341, "ECCENTRICITY": 0.0001544, "INCLINATION": 53.1571, "RA_OF_ASC_NODE": 325.9033, "ARG_OF_PERICENTER": 104.4391, "MEAN_ANOMALY": 255.6801, "EPHEMERIS_TYPE": 0, "CLASSIFICATION_TYPE": "U", "NORAD_CAT_ID": 66372, "ELEMENT_SET_NO": 999, "REV_AT_EPOCH": 406, "BSTAR": 0.0012748, "MEAN_MOTION_DOT": 0.00190917, "MEAN_MOTION_DDOT": 0}, "tle": {"line1": "1 66372U 25254AA  25336.45914029  .00190917  00000+0  12748-2 0  9995", "line2": "2 66372  53.1571 325.9033 0001544 104.4391 255.6801 15.74257341  4065"}}, "geometry": {"type": "Point", "coordinates": [-53.81802681318513, -21.89576275195373]}}]}